KUIPER-00079            
1 64826U 25151L   25343.40510473  .00008362  00000+0  11234-2 0  9992
2 64826  51.9000 339.8084 0011492 303.0733  56.9125 14.79944418 23132
KUIPER-00080            
1 64827U 25151M   25343.43861725  .00008197  00000+0  10996-2 0  9995
2 64827  51.9008 339.6608 0005853 317.8422  42.2089 14.80055335 21940
KUIPER-00082            
1 64828U 25151N   25343.21587948 -.00004879  00000+0 -61093-3 0  9994
2 64828  51.9022 328.1605 0004695 343.9349  16.1464 14.79953672 22080
KUIPER-00083            
1 64829U 25151P   25343.68058183  .00006550  00000+0  88736-3 0  9999
2 64829  51.9016 333.6039 0011226 304.2084  55.7814 14.79908793 23230
KUIPER-00084            
1 64830U 25151Q   25343.73720819  .00007195  00000+0  97016-3 0  9996
2 64830  51.9016 343.3382 0011767 278.4751  81.4877 14.79973211 21919
KUIPER-00085            
1 64831U 25151R   25343.65480765  .00005390  00000+0  73500-3 0  9998
2 64831  51.9047 326.2349 0007157 320.6564  39.3878 14.79953480 22142
KUIPER-00086            
1 64832U 25151S   25343.71152997  .00008514  00000+0  11427-2 0  9999
2 64832  51.9024 335.9715 0010948 303.8090  56.1830 14.79966533 22015
KUIPER-00087            
1 64833U 25151T   25343.12257659  .00005532  00000+0  75273-3 0  9993
2 64833  51.9005 321.0699 0000970  12.7567 347.3420 14.80005166 22165
